[{"OBJECT_NAME":"STARLINK-30249","OBJECT_ID":"2023-119S","EPOCH":"2026-03-09T22:00:01.999584","MEAN_MOTION":15.22731923,"ECCENTRICITY":0.0001613,"INCLINATION":43.0001,"RA_OF_ASC_NODE":79.6364,"ARG_OF_PERICENTER":251.0445,"MEAN_ANOMALY":294.4503,"EPHEMERIS_TYPE":0,"CLASSIFICATION_TYPE":"U","NORAD_CAT_ID":57618,"ELEMENT_SET_NO":999,"REV_AT_EPOCH":578,"BSTAR":0.044527608,"MEAN_MOTION_DOT":0.01150324,"MEAN_MOTION_DDOT":0},{"OBJECT_NAME":"SITRO-AIS-60","OBJECT_ID":"2025-313N","EPOCH":"2026-03-09T21:17:25.286208","MEAN_MOTION":15.21085729,"ECCENTRICITY":0.00151729,"INCLINATION":97.4006,"RA_OF_ASC_NODE":145.1066,"ARG_OF_PERICENTER":358.9487,"MEAN_ANOMALY":1.1715,"EPHEMERIS_TYPE":0,"CLASSIFICATION_TYPE":"U","NORAD_CAT_ID":67260,"ELEMENT_SET_NO":999,"REV_AT_EPOCH":1084,"BSTAR":0.00042372685,"MEAN_MOTION_DOT":9.383e-5,"MEAN_MOTION_DDOT":0}]
